OBJECT_NAME,OBJECT_ID,EPOCH,MEAN_MOTION,ECCENTRICITY,INCLINATION,RA_OF_ASC_NODE,ARG_OF_PERICENTER,MEAN_ANOMALY,EPHEMERIS_TYPE,CLASSIFICATION_TYPE,NORAD_CAT_ID,ELEMENT_SET_NO,REV_AT_EPOCH,BSTAR,MEAN_MOTION_DOT,MEAN_MOTION_DDOT
GALAXY 37 (G-37),2023-112A,2026-07-18T14:15:38.763360,1.00271956,.0002083,0.0164,59.8517,55.7407,267.7010,0,U,57493,999,1085,0,.41E-6,0
TJS-10,2023-169A,2026-07-18T19:51:04.082976,1.00273021,.0004093,2.6241,80.1128,113.4926,133.1890,0,U,58204,999,985,0,-.257E-5,0
ZHONGXING-6E,2023-172A,2026-07-14T16:55:11.377920,1.00272476,.0002698,0.0192,86.2131,23.7417,191.9164,0,U,58253,999,993,0,-.37E-5,0
YAOGAN-41,2023-197A,2026-07-18T13:48:33.988032,1.00275720,.00139447,3.0722,313.6453,200.6646,112.3327,0,U,58582,999,963,0,-.367E-5,0
OVZON-3,2024-003A,2026-07-18T10:05:15.475200,1.00272850,.00000403,0.0163,127.2521,123.2260,256.7399,0,U,58698,999,776,0,.44E-6,0
INSAT-3DS,2024-033A,2026-07-18T13:36:55.079424,1.00270806,.00011943,0.0816,264.1918,222.1695,96.2951,0,U,58990,999,4738,0,-.163E-5,0
MERAH PUTIH 2,2024-035A,2026-07-18T13:45:41.764320,1.00270047,.00011974,0.0156,66.3123,46.9582,142.4858,0,U,58995,999,890,0,0,0
TJS-11,2024-037A,2026-07-17T18:35:15.047808,1.00272763,.0001902,4.1594,327.4702,153.2504,206.2546,0,U,59020,999,888,0,-.371E-5,0
HULIANWAN GAOGUI-01 (HG-01),2024-040A,2026-07-17T23:41:56.940576,1.00273287,.00018582,0.0752,331.7087,71.6733,281.5272,0,U,59069,999,763,0,.147E-5,0
EUTELSAT 36D,2024-059A,2026-07-18T11:40:55.675200,1.00268149,.00001391,0.0213,65.5442,341.0780,100.7808,0,U,59346,999,846,0,0,0
PAKSAT-MM1,2024-104A,2026-07-18T13:24:25.809984,1.00272722,.00021166,0.0286,156.1963,302.2817,77.1632,0,U,59915,999,784,0,.146E-5,0
ASTRA 1P (SES-24),2024-115A,2026-07-18T02:10:14.493792,1.00262444,.00013638,0.0636,329.3228,259.7725,118.5614,0,U,60086,999,750,0,.11E-5,0
GOES 19,2024-119A,2026-07-18T15:05:38.632704,1.00270741,.00003904,0.0180,140.2723,52.0769,255.2869,0,U,60133,999,727,0,-.255E-5,0
TURKSAT 6A,2024-127A,2026-07-18T04:52:15.877056,1.00271225,.00030491,0.0180,187.7046,338.4489,244.8928,0,U,60233,999,732,0,0,0
HULIANWAN GAOGUI-02 (HG-02),2024-135A,2026-07-17T22:33:00.935424,1.00272832,.00060718,0.0471,356.4218,13.3071,57.3054,0,U,60327,999,780,0,-.183E-5,0
ZHONGXING-4A,2024-151A,2026-07-18T13:06:38.697408,1.00273841,.00001557,1.2345,270.4545,30.9481,309.8124,0,U,60606,999,706,0,-.369E-5,0
HULIANWAN GAOGUI-03 (HG-03),2024-181A,2026-07-18T14:34:55.430400,1.00270617,.00012418,0.0522,356.0276,100.5593,341.4188,0,U,61503,999,714,0,-.248E-5,0
DSN-3 (KIRAMEKI-3),2024-198A,2026-07-18T13:17:38.609376,1.00271788,.00010695,0.0504,254.4173,243.5090,141.9019,0,U,61733,999,623,0,-.257E-5,0
KOREASAT 6A,2024-206A,2026-07-18T13:46:34.179744,1.00273764,.00009756,0.0221,102.4753,334.8719,181.6707,0,U,61910,999,615,0,-.369E-5,0
OPTUS-X (ADS-01),2024-212A,2026-07-18T13:25:38.792928,1.00269685,.00023233,0.0193,47.1897,90.4506,156.5494,0,U,62006,999,607,0,0,0
GSAT-N2 (GSAT-20),2024-214A,2026-07-18T13:32:55.462848,1.00271946,.00026831,0.0647,261.0039,147.8685,158.6508,0,U,62028,999,621,0,-.26E-6,0
SXM-9,2024-234A,2026-07-18T05:58:34.260960,1.00271206,.0004875,0.0189,335.0433,344.4386,341.0403,0,U,62259,999,588,0,-.213E-5,0
TJS-12,2024-246A,2026-07-18T13:55:18.035904,1.00268469,.00018631,0.6041,302.5128,100.6408,248.5399,0,U,62374,999,587,0,-.239E-5,0
NUVIEW ALPHA,2024-252B,2026-07-18T05:59:11.700672,1.00272075,.00011654,0.0420,25.3611,64.6893,212.7028,0,U,62455,999,413,0,-.223E-5,0
AGILA,2024-252C,2026-07-18T14:06:38.545632,1.00272289,.00014135,0.0385,159.4544,320.2756,180.4837,0,U,62456,999,547,0,-.189E-5,0
NUVIEW BRAVO,2024-252D,2026-07-18T05:59:11.700672,1.00271450,.00016567,0.0687,163.4628,341.4509,157.8254,0,U,62457,999,410,0,-.223E-5,0
THURAYA-4,2025-001A,2026-07-18T13:26:10.641696,1.00273207,.00000679,0.0226,76.0336,182.1058,284.0768,0,U,62483,999,449,0,.132E-5,0
SHIJIAN-25 (SJ-25),2025-002A,2026-07-18T19:46:25.225248,1.00279843,.0050886,5.1867,60.9651,176.5823,122.7745,0,U,62485,999,567,0,-.358E-5,0
TJS-14,2025-017A,2026-07-18T13:18:41.360832,1.00268793,.00019519,0.7133,298.0390,306.6867,269.6821,0,U,62804,999,558,0,.108E-5,0
SPAINSAT NG I,2025-021A,2026-07-18T02:02:38.768352,1.00272377,.00002355,0.0198,42.6747,120.2218,192.6389,0,U,62852,999,429,0,.143E-5,0
