GALAXY 37 (G-37)        
1 57493U 23112A   26199.59419865  .00000041  00000+0  00000+0 0  9994
2 57493   0.0164  59.8517 0002083  55.7407 267.7010  1.00271956 10855
TJS-10                  
1 58204U 23169A   26199.82713059 -.00000257  00000+0  00000+0 0  9995
2 58204   2.6241  80.1128 0004093 113.4926 133.1890  1.00273021  9851
ZHONGXING-6E            
1 58253U 23172A   26195.70499280 -.00000370  00000+0  00000+0 0  9999
2 58253   0.0192  86.2131 0002698  23.7417 191.9164  1.00272476  9938
YAOGAN-41               
1 58582U 23197A   26199.57539338 -.00000367  00000+0  00000+0 0  9995
2 58582   3.0722 313.6453 0013944 200.6646 112.3327  1.00275720  9635
OVZON-3                 
1 58698U 24003A   26199.42031800  .00000044  00000+0  00000+0 0  9996
2 58698   0.0163 127.2521 0000040 123.2260 256.7399  1.00272850  7764
INSAT-3DS               
1 58990U 24033A   26199.56730416 -.00000163  00000+0  00000+0 0  9991
2 58990   0.0816 264.1918 0001194 222.1695  96.2951  1.00270806 47389
MERAH PUTIH 2           
1 58995U 24035A   26199.57340005  .00000000  00000+0  00000+0 0  9999
2 58995   0.0156  66.3123 0001197  46.9582 142.4858  1.00270047  8903
TJS-11                  
1 59020U 24037A   26198.77447972 -.00000371  00000+0  00000+0 0  9995
2 59020   4.1594 327.4702 0001902 153.2504 206.2546  1.00272763  8885
HULIANWAN GAOGUI-01 (H*)
1 59069U 24040A   26198.98746459  .00000147  00000+0  00000+0 0  9997
2 59069   0.0752 331.7087 0001858  71.6733 281.5272  1.00273287  7636
EUTELSAT 36D            
1 59346U 24059A   26199.48675550  .00000000  00000+0  00000+0 0  9992
2 59346   0.0213  65.5442 0000139 341.0780 100.7808  1.00268149  8460
PAKSAT-MM1              
1 59915U 24104A   26199.55863206  .00000146  00000+0  00000+0 0  9991
2 59915   0.0286 156.1963 0002116 302.2817  77.1632  1.00272722  7849
ASTRA 1P (SES-24)       
1 60086U 24115A   26199.09044553  .00000110  00000+0  00000+0 0  9990
2 60086   0.0636 329.3228 0001363 259.7725 118.5614  1.00262444  7507
GOES 19                 
1 60133U 24119A   26199.62891936 -.00000255  00000+0  00000+0 0  9992
2 60133   0.0180 140.2723 0000390  52.0769 255.2869  1.00270741  7279
TURKSAT 6A              
1 60233U 24127A   26199.20296154  .00000000  00000+0  00000+0 0  9994
2 60233   0.0180 187.7046 0003049 338.4489 244.8928  1.00271225  7322
HULIANWAN GAOGUI-02 (H*)
1 60327U 24135A   26198.93959416 -.00000183  00000+0  00000+0 0  9996
2 60327   0.0471 356.4218 0006071  13.3071  57.3054  1.00272832  7804
ZHONGXING-4A            
1 60606U 24151A   26199.54628122 -.00000369  00000+0  00000+0 0  9995
2 60606   1.2345 270.4545 0000155  30.9481 309.8124  1.00273841  7064
HULIANWAN GAOGUI-03 (H*)
1 61503U 24181A   26199.60758600 -.00000248  00000+0  00000+0 0  9993
2 61503   0.0522 356.0276 0001241 100.5593 341.4188  1.00270617  7141
DSN-3 (KIRAMEKI-3)      
1 61733U 24198A   26199.55391909 -.00000257  00000+0  00000+0 0  9995
2 61733   0.0504 254.4173 0001069 243.5090 141.9019  1.00271788  6236
KOREASAT 6A             
1 61910U 24206A   26199.57400671 -.00000369  00000+0  00000+0 0  9995
2 61910   0.0221 102.4753 0000975 334.8719 181.6707  1.00273764  6154
OPTUS-X (ADS-01)        
1 62006U 24212A   26199.55947677  .00000000  00000+0  00000+0 0  9990
2 62006   0.0193  47.1897 0002323  90.4506 156.5494  1.00269685  6073
GSAT-N2 (GSAT-20)       
1 62028U 24214A   26199.56453082 -.00000026  00000+0  00000+0 0  9998
2 62028   0.0647 261.0039 0002683 147.8685 158.6508  1.00271946  6218
SXM-9                   
1 62259U 24234A   26199.24900765 -.00000213  00000+0  00000+0 0  9994
2 62259   0.0189 335.0433 0004875 344.4386 341.0403  1.00271206  5886
TJS-12                  
1 62374U 24246A   26199.58006986 -.00000239  00000+0  00000+0 0  9992
2 62374   0.6041 302.5128 0001863 100.6408 248.5399  1.00268469  5879
NUVIEW ALPHA            
1 62455U 24252B   26199.24944098 -.00000223  00000+0  00000+0 0  9990
2 62455   0.0420  25.3611 0001165  64.6893 212.7028  1.00272075  4131
AGILA                   
1 62456U 24252C   26199.58794613 -.00000189  00000+0  00000+0 0  9995
2 62456   0.0385 159.4544 0001413 320.2756 180.4837  1.00272289  5475
NUVIEW BRAVO            
1 62457U 24252D   26199.24944098 -.00000223  00000+0  00000+0 0  9992
2 62457   0.0687 163.4628 0001656 341.4509 157.8254  1.00271450  4108
THURAYA-4               
1 62483U 25001A   26199.55984539  .00000132  00000+0  00000+0 0  9990
2 62483   0.0226  76.0336 0000067 182.1058 284.0768  1.00273207  4492
SHIJIAN-25 (SJ-25)      
1 62485U 25002A   26199.82390307 -.00000358  00000+0  00000+0 0  9998
2 62485   5.1867  60.9651 0050886 176.5823 122.7745  1.00279843  5670
TJS-14                  
1 62804U 25017A   26199.55464538  .00000108  00000+0  00000+0 0  9999
2 62804   0.7133 298.0390 0001951 306.6867 269.6821  1.00268793  5587
SPAINSAT NG I           
1 62852U 25021A   26199.08517093  .00000143  00000+0  00000+0 0  9999
2 62852   0.0198  42.6747 0000235 120.2218 192.6389  1.00272377  4291
